O3B FM3                 
1 40079U 14038A   15128.12789105 -.00000018  00000-0  00000+0 0  9995
2 40079  82.5000   2.4446 0004930  43.8693 313.7299  5.00116407 15080
O3B FM2                 
1 39190U 13031C   15126.81593846 -.00000018  00000-0  00000+0 0  9998
2 39190  82.5000  32.4446 0002532 259.0486  97.9499  5.00116855 34020
O3B FM4                 
1 39189U 13031B   15128.11493432 -.00000018  00000-0  00000+0 0  9991
2 39189  82.5000  62.4446 0001764 274.4980  86.7442  5.00116217 34095
O3B FM5                 
1 39188U 13031A   15128.11639219 -.00000018  00000-0  00000+0 0  9995
2 39188  82.5000  92.4446 0003330  34.7270 328.2779  5.00116434 34092
O3B PFM                 
1 39191U 13031D   15126.61727408 -.00000018  00000-0  00000+0 0  9990
2 39191  82.5000 122.4446 0003009  18.2716 331.9497  5.00116914 34027
O3B FM6                 
1 40081U 14038C   15128.30535090 -.00000018  00000-0  00000+0 0  9990
2 40081  82.5000 152.4446 0003738  46.0499 313.6350  5.00116453 15112
O3B FM7                 
1 40080U 14038B   15131.08162516 -.00000020  00000-0  00000+0 0  9990
2 40080  82.5000 182.4446 0003229  49.0171 312.9321  5.00115898 15255
O3B FM8                 
1 40082U 14038D   15128.34978437 -.00000018  00000-0  00000+0 0  9991
2 40082  82.5000 212.4446 0003207  23.1530 337.4335  5.00115896 15094
O3B FM9                 
1 40351U 14083D   15128.03902297 -.00000018  00000-0  00000+0 0  9997
2 40351  82.5000 232.4446 0002426  53.2254 302.2123  5.00116335  7032
O3B FM10                
1 40348U 14083A   15129.17173968 -.00000019  00000-0  00000+0 0  9995
2 40348  82.5000 262.4446 0002403  65.0781 290.7095  5.00116201  7099
O3B FM11                
1 40349U 14083B   15130.99287691 -.00000020  00000-0  00000+0 0  9999
2 40349  82.5000 292.4446 0002177  54.2500 302.9564  5.00116411  7189
O3B FM12                
1 40350U 14083C   15128.06144353 -.00000018  00000-0  00000+0 0  9990
2 40350  82.5000 322.4446 0002463  42.9402 317.1874  5.00116327  7033